NORAD_CAT_ID,OBJECT_NAME,OBJECT_TYPE,EPOCH,MEAN_MOTION,ECCENTRICITY,INCLINATION,RA_OF_ASC_NODE,ARG_OF_PERICENTER,MEAN_ANOMALY,BSTAR,MEAN_MOTION_DOT,MEAN_MOTION_DDOT,TLE_LINE0,TLE_LINE1,TLE_LINE2,SEMIMAJOR_AXIS,PERIOD,APOGEE,PERIGEE,DECAYED
51961.0,STARLINK-3689,PAYLOAD,2022-03-27 22:00:01,15.73205158,9.97e-05,53.2196,48.9417,104.2558,348.7483,0.00050468,0.00070823,0.0,0 STARLINK-3689,1 51961U 22025F   22086.91668981  .00070823  00000-0  50468-3 0  9995,2 51961  53.2196  48.9417 0000997 104.2558 348.7483 15.73205158  3112,6727.88,91.533,350.416,349.075,0.0
51961.0,STARLINK-3689,PAYLOAD,2022-03-28 08:00:01,15.73285462,0.0001131,53.2196,46.882,87.456,206.735,-0.00042587,-0.00060179,0.0,0 STARLINK-3689,1 51961U 22025F   22087.33334491 -.00060179  00000-0 -42587-3 0  9996,2 51961  53.2196  46.8820 0001131  87.4560 206.7350 15.73285462  4240,6727.651999999999,91.528,350.277,348.756,0.0
51961.0,STARLINK-3689,PAYLOAD,2022-03-28 14:00:01,15.73261888,0.000127,53.2194,45.6431,97.7206,173.3075,-0.00046867,-0.00066053,0.0,0 STARLINK-3689,1 51961U 22025F   22087.58335648 -.00066053  00000-0 -46867-3 0  9990,2 51961  53.2194  45.6431 0001270  97.7206 173.3075 15.73261888  3224,6727.719,91.53,350.43800000000016,348.72900000000016,0.0
51961.0,STARLINK-3689,PAYLOAD,2022-03-28 22:00:00,15.73226084,0.0001222,53.2195,43.9932,107.3003,252.6197,-0.00033703,-0.00047704,0.0,0 STARLINK-3689,1 51961U 22025F   22087.91667824 -.00047704  00000-0 -33703-3 0  9998,2 51961  53.2195  43.9932 0001222 107.3003 252.6197 15.73226084  3272,6727.821,91.532,350.5080000000001,348.86400000000015,0.0
51961.0,STARLINK-3689,PAYLOAD,2022-03-29 04:00:00,15.73201487,0.0001144,53.2193,42.7578,97.5727,239.0585,-0.00035926,-0.00050738,0.0,0 STARLINK-3689,1 51961U 22025F   22088.16667824 -.00050738  00000-0 -35926-3 0  9996,2 51961  53.2193  42.7578 0001144  97.5727 239.0585 15.73201487  4371,6727.891,91.533,350.526,348.986,0.0
51961.0,STARLINK-3689,PAYLOAD,2022-03-29 14:00:01,15.73136383,0.0001346,53.2191,40.6948,101.164,76.6001,-9.436e-05,-0.00013804,0.0,0 STARLINK-3689,1 51961U 22025F   22088.58334491 -.00013804  00000-0 -94360-4 0  9994,2 51961  53.2191  40.6948 0001346 101.1640  76.6001 15.73136383  3376,6728.0769999999975,91.537,350.847,349.036,0.0
51961.0,STARLINK-3689,PAYLOAD,2022-03-29 20:00:01,15.7311733,0.0001527,53.2187,39.4569,107.7415,46.655,0.0007343,0.00103343,0.0,0 STARLINK-3689,1 51961U 22025F   22088.83334491  .00103343  00000-0  73430-3 0  9992,2 51961  53.2187  39.4569 0001527 107.7415  46.6550 15.73117330  4478,6728.130999999999,91.538,351.023,348.968,0.0
51961.0,STARLINK-3689,PAYLOAD,2022-03-29 22:00:00,15.73149508,0.0001517,53.2187,39.0451,106.9782,159.6235,0.00048934,0.00068468,0.0,0 STARLINK-3689,1 51961U 22025F   22088.91667824  .00068468  00000-0  48934-3 0  9999,2 51961  53.2187  39.0451 0001517 106.9782 159.6235 15.73149508  3433,6728.0390000000025,91.536,350.925,348.8830000000001,0.0
51961.0,STARLINK-3689,PAYLOAD,2022-03-30 12:00:00,15.73259908,0.0001283,53.2174,36.1595,105.5846,226.6173,-0.00047339,-0.00066702,0.0,0 STARLINK-3689,1 51961U 22025F   22089.50001157 -.00066702  00000-0 -47339-3 0  9995,2 51961  53.2174  36.1595 0001283 105.5846 226.6173 15.73259908  4581,6727.724,91.53,350.45300000000015,348.726,0.0
51961.0,STARLINK-3689,PAYLOAD,2022-03-30 14:00:01,15.73222961,0.0001266,53.2175,35.7465,110.4572,334.0659,-8.7217e-06,-1.845e-05,0.0,0 STARLINK-3689,1 51961U 22025F   22089.58335648 -.00001845  00000-0 -87217-5 0  9996,2 51961  53.2175  35.7465 0001266 110.4572 334.0659 15.73222961  3531,6727.83,91.532,350.546,348.843,0.0
51961.0,STARLINK-3689,PAYLOAD,2022-03-30 22:00:00,15.73216589,0.000136,53.2178,34.0972,112.5914,60.8095,5.6027e-05,7.255e-05,0.0,0 STARLINK-3689,1 51961U 22025F   22089.91667824  .00007255  00000-0  56027-4 0  9990,2 51961  53.2178  34.0972 0001360 112.5914  60.8095 15.73216589  3590,6727.848000000001,91.532,350.62800000000016,348.798,0.0
51961.0,STARLINK-3689,PAYLOAD,2022-03-31 06:00:00,15.73229845,0.0001274999999999,53.2176,32.4496,105.2773,157.0814,-0.00010135,-0.00014837,0.0,0 STARLINK-3689,1 51961U 22025F   22090.25001157 -.00014837  00000-0 -10135-3 0  9995,2 51961  53.2176  32.4496 0001275 105.2773 157.0814 15.73229845  4709,6727.81,91.531,350.533,348.81699999999995,0.0
51961.0,STARLINK-3689,PAYLOAD,2022-03-31 14:00:01,15.73183823,0.000131,53.2177,30.7983,117.2553,234.0677,0.0003486,0.00048553,0.0,0 STARLINK-3689,1 51961U 22025F   22090.58334491  .00048553  00000-0  34860-3 0  9992,2 51961  53.2177  30.7983 0001310 117.2553 234.0677 15.73183823  3696,6727.941,91.534,350.68800000000016,348.925,0.0
51961.0,STARLINK-3689,PAYLOAD,2022-03-31 22:00:00,15.73276381,0.0001343,53.2181,29.1487,119.8615,320.4003,-0.00022298,-0.00031898,0.0,0 STARLINK-3689,1 51961U 22025F   22090.91667824 -.00031898  00000-0 -22298-3 0  9996,2 51961  53.2181  29.1487 0001343 119.8615 320.4003 15.73276381  4804,6727.677,91.529,350.446,348.639,0.0
51961.0,STARLINK-3689,PAYLOAD,2022-04-01 14:00:01,15.7325085,0.0001449,53.2181,25.8496,116.4479,141.8384,-0.00053032,-0.00074553,0.0,0 STARLINK-3689,1 51961U 22025F   22091.58334491 -.00074553  00000-0 -53032-3 0  9996,2 51961  53.2181  25.8496 0001449 116.4479 141.8384 15.73250850  3714,6727.75,91.53,350.59,348.64,0.0
51961.0,STARLINK-3689,PAYLOAD,2022-04-01 22:00:00,15.73221228,0.000145,53.218,24.2005,119.9099,227.3242,-0.00060672,-0.00084992,0.0,0 STARLINK-3689,1 51961U 22025F   22091.91667824 -.00084992  00000-0 -60672-3 0  9998,2 51961  53.2180  24.2005 0001450 119.9099 227.3242 15.73221228  3697,6727.835,91.532,350.675,348.724,0.0
51961.0,STARLINK-3689,PAYLOAD,2022-04-02 06:00:00,15.73132109,0.0001286999999999,53.2172,22.5507,113.9426,322.2195,-4.7358e-05,-7.241e-05,0.0,0 STARLINK-3689,1 51961U 22025F   22092.25001157 -.00007241  00000-0 -47358-4 0  9996,2 51961  53.2172  22.5507 0001287 113.9426 322.2195 15.73132109  5011,6728.089,91.537,350.82,349.088,0.0
51961.0,STARLINK-3689,PAYLOAD,2022-04-02 14:00:01,15.73104385,0.0001424,53.2177,20.9014,123.4453,41.6767,0.0008177,0.00115251,0.0,0 STARLINK-3689,1 51961U 22025F   22092.58335648  .00115251  00000-0  81770-3 0  9991,2 51961  53.2177  20.9014 0001424 123.4453  41.6767 15.73104385  5067,6728.168000000002,91.539,350.991,349.075,0.0
51961.0,STARLINK-3689,PAYLOAD,2022-04-02 22:00:01,15.73217855,0.0001614,53.218,19.2526,121.4971,132.4727,-0.00069129,-0.00096609,0.0,0 STARLINK-3689,1 51961U 22025F   22092.91668981 -.00096609  00000-0 -69129-3 0  9998,2 51961  53.2180  19.2526 0001614 121.4971 132.4727 15.73217855  5123,6727.844,91.532,350.795,348.62300000000016,0.0
51961.0,STARLINK-3689,PAYLOAD,2022-04-03 14:00:01,15.73115331,0.0001522,53.2178,15.9536,125.3428,306.3316,0.00033158,0.00046002,0.0,0 STARLINK-3689,1 51961U 22025F   22093.58334491  .00046002  00000-0  33158-3 0  9991,2 51961  53.2178  15.9536 0001522 125.3428 306.3316 15.73115331  5225,6728.137,91.538,351.026,348.978,0.0
51961.0,STARLINK-3689,PAYLOAD,2022-04-03 22:00:00,15.73083486,0.0001381,53.2177,14.3052,128.0506,32.4558,0.0011386,0.00161474,0.0,0 STARLINK-3689,1 51961U 22025F   22093.91667824  .00161474  00000-0  11386-2 0  9996,2 51961  53.2177  14.3052 0001381 128.0506  32.4558 15.73083486  5275,6728.227,91.54,351.022,349.163,0.0
51961.0,STARLINK-3689,PAYLOAD,2022-04-04 04:00:00,15.731965099999998,0.0001242,53.2175,13.0697,122.3079,14.8051,0.0001291,0.00017533,0.0,0 STARLINK-3689,1 51961U 22025F   22094.16667824  .00017533  00000-0  12910-3 0  9995,2 51961  53.2175  13.0697 0001242 122.3079  14.8051 15.73196510  5312,6727.905,91.533,350.606,348.935,0.0
51961.0,STARLINK-3689,PAYLOAD,2022-04-04 14:00:01,15.73209422,0.0001449,53.2172,11.0056,131.5147,206.7992,0.00057821,0.0008135,0.0,0 STARLINK-3689,1 51961U 22025F   22094.58334491  .00081350  00000-0  57821-3 0  9990,2 51961  53.2172  11.0056 0001449 131.5147 206.7992 15.73209422  5383,6727.868,91.533,350.708,348.7580000000001,0.0
51961.0,STARLINK-3689,PAYLOAD,2022-04-04 22:00:00,15.73251483,0.0001535,53.2174,9.3569,128.45,298.8401,0.00021632,0.00029914,0.0,0 STARLINK-3689,1 51961U 22025F   22094.91667824  .00029914  00000-0  21632-3 0  9995,2 51961  53.2174   9.3569 0001535 128.4500 298.8401 15.73251483  3703,6727.748000000001,91.53,350.646,348.581,0.0
51961.0,STARLINK-3689,PAYLOAD,2022-04-05 06:00:00,15.73282071,0.0001347,53.2172,7.7086,122.8661,33.4097,-0.00017628,-0.00025373,0.0,0 STARLINK-3689,1 51961U 22025F   22095.25001157 -.00025373  00000-0 -17628-3 0  9991,2 51961  53.2172   7.7086 0001347 122.8661  33.4097 15.73282071  5482,6727.661,91.528,350.432,348.62,0.0
51961.0,STARLINK-3689,PAYLOAD,2022-04-05 14:00:01,15.73230904,0.0001419999999999,53.2172,6.0568,133.4972,111.86,-0.00046022,-0.00064799,0.0,0 STARLINK-3689,1 51961U 22025F   22095.58335648 -.00064799  00000-0 -46022-3 0  9997,2 51961  53.2172   6.0568 0001420 133.4972 111.8600 15.73230904  3706,6727.807,91.531,350.62699999999984,348.717,0.0
51961.0,STARLINK-3689,PAYLOAD,2022-04-05 16:00:00,15.7320729,0.0001477,53.2171,5.6442,133.821,223.7155,-0.00029512,-0.00041846,0.0,0 STARLINK-3689,1 51961U 22025F   22095.66667824 -.00041846  00000-0 -29512-3 0  9993,2 51961  53.2171   5.6442 0001477 133.8210 223.7155 15.73207290  5557,6727.874,91.533,350.733,348.746,0.0
51961.0,STARLINK-3689,PAYLOAD,2022-04-05 22:00:00,15.73170017,0.0001434,53.2171,4.4086,129.9579,204.253,-0.00054302,-0.00076047,0.0,0 STARLINK-3689,1 51961U 22025F   22095.91667824 -.00076047  00000-0 -54302-3 0  9997,2 51961  53.2171   4.4086 0001434 129.9579 204.2530 15.73170017  5596,6727.981,91.535,350.81,348.881,0.0
51961.0,STARLINK-3689,PAYLOAD,2022-04-06 06:00:02,15.73127459,0.0001313,53.2163,2.7601,125.161,298.001,0.00071586,0.00100744,0.0,0 STARLINK-3689,1 51961U 22025F   22096.25002315  .00100744  00000-0  71586-3 0  9996,2 51961  53.2163   2.7601 0001313 125.1610 298.0010 15.73127459  5643,6728.102,91.537,350.85,349.084,0.0
